NORAD_CAT_ID,OBJECT_NAME,OBJECT_TYPE,EPOCH,MEAN_MOTION,ECCENTRICITY,INCLINATION,RA_OF_ASC_NODE,ARG_OF_PERICENTER,MEAN_ANOMALY,BSTAR,MEAN_MOTION_DOT,MEAN_MOTION_DDOT,TLE_LINE0,TLE_LINE1,TLE_LINE2,SEMIMAJOR_AXIS,PERIOD,APOGEE,PERIGEE,DECAYED
55307.0,STARLINK-5288,PAYLOAD,2023-02-25 04:42:54,15.69949442,0.0003807,70.0,325.821,270.478,89.598,0.0003188,0.00038339,0.0,0 STARLINK-5288,1 55307U 23010AQ  23056.19646351  .00038339  00000-0  31880-3 0  9996,2 55307  70.0000 325.8210 0003807 270.4780  89.5980 15.69949442  6262,6737.179,91.723,361.608,356.479,0.0
55307.0,STARLINK-5288,PAYLOAD,2023-02-25 18:28:41,15.69933879,0.0002973,69.9999,324.2087,271.9013,88.1843,0.00015579,0.00018568,0.0,0 STARLINK-5288,1 55307U 23010AQ  23056.76991906  .00018568  00000-0  15579-3 0  9997,2 55307  69.9999 324.2087 0002973 271.9013  88.1843 15.69933879  6359,6737.223,91.724,361.091,357.085,0.0
55307.0,STARLINK-5288,PAYLOAD,2023-02-25 20:00:26,15.69932476,0.000304,70.0,324.029,271.7899,88.2949,0.00015461,0.00018424,0.0,0 STARLINK-5288,1 55307U 23010AQ  23056.83363575  .00018424  00000-0  15461-3 0  9991,2 55307  70.0000 324.0290 0003040 271.7899  88.2949 15.69932476  6681,6737.227,91.724,361.14,357.044,0.0
55307.0,STARLINK-5288,PAYLOAD,2023-02-26 03:39:11,15.6996242,0.0003579,69.9995,323.133,270.3607,89.7179,0.00028934,0.00034779,0.0,0 STARLINK-5288,1 55307U 23010AQ  23057.15221205  .00034779  00000-0  28934-3 0  9990,2 55307  69.9995 323.1330 0003579 270.3607  89.7179 15.69962420  6419,6737.142,91.722,361.418,356.595,0.0
55307.0,STARLINK-5288,PAYLOAD,2023-02-26 17:24:57,15.69943843,0.0003487,69.9997,321.5215,265.5818,94.4979,0.00014438,0.00017198,0.0,0 STARLINK-5288,1 55307U 23010AQ  23057.72566251  .00017198  00000-0  14438-3 0  9996,2 55307  69.9997 321.5215 0003487 265.5818  94.4979 15.69943843  6502,6737.195,91.723,361.409,356.71,0.0
55307.0,STARLINK-5288,PAYLOAD,2023-02-26 23:31:57,15.69929702,0.0003851,69.9996,320.8043,272.1139,87.9616,0.00017161,0.00020479,0.0,0 STARLINK-5288,1 55307U 23010AQ  23057.98053140  .00020479  00000-0  17161-3 0  9994,2 55307  69.9996 320.8043 0003851 272.1139  87.9616 15.69929702  6544,6737.235,91.724,361.695,356.506,0.0
55307.0,STARLINK-5288,PAYLOAD,2023-02-27 02:35:28,15.69937589,0.0003709,69.9999,320.4458,271.2982,88.7789,0.00025396,0.00030454,0.0,0 STARLINK-5288,1 55307U 23010AQ  23058.10796411  .00030454  00000-0  25396-3 0  9997,2 55307  69.9999 320.4458 0003709 271.2982  88.7789 15.69937589  6880,6737.213,91.723,361.576,356.579,0.0
55307.0,STARLINK-5288,PAYLOAD,2023-02-27 20:56:29,15.69945539,0.0003216,70.0004,318.2961,267.8005,92.2823,0.00012931,0.00015378,0.0,0 STARLINK-5288,1 55307U 23010AQ  23058.87256043  .00015378  00000-0  12931-3 0  9992,2 55307  70.0004 318.2961 0003216 267.8005  92.2823 15.69945539  7002,6737.19,91.723,361.221,356.888,0.0
55307.0,STARLINK-5288,PAYLOAD,2023-02-28 19:52:47,15.69897234,0.0003836,70.001,315.6096,271.8702,88.2054,1.6773e-05,1.802e-05,0.0,0 STARLINK-5288,1 55307U 23010AQ  23059.82833138  .00001802  00000-0  16773-4 0  9990,2 55307  70.0010 315.6096 0003836 271.8702  88.2054 15.69897234  7151,6737.328,91.726,361.777,356.609,0.0
55307.0,STARLINK-5288,PAYLOAD,2023-03-01 00:28:03,15.69901617,0.0002733,70.0019,315.0736,264.4205,95.6679,7.4143e-05,8.703e-05,0.0,0 STARLINK-5288,1 55307U 23010AQ  23060.01948529  .00008703  00000-0  74143-4 0  9996,2 55307  70.0019 315.0736 0002733 264.4205  95.6679 15.69901617  6869,6737.315,91.725,361.022,357.339,0.0
55307.0,STARLINK-5288,PAYLOAD,2023-03-01 20:20:49,15.69956665,0.0003405,70.0013,312.744,255.6036,104.4781,0.000201,0.00024058,0.0,0 STARLINK-5288,1 55307U 23010AQ  23060.84779221  .00024058  00000-0  20100-3 0  9992,2 55307  70.0013 312.7440 0003405 255.6036 104.4781 15.69956665  7317,6737.158,91.722,361.317,356.729,0.0
55307.0,STARLINK-5288,PAYLOAD,2023-03-02 19:17:05,15.69941286,0.0003297,70.0017,310.0572,247.5015,112.5832,2.0696e-05,2.278e-05,0.0,0 STARLINK-5288,1 55307U 23010AQ  23061.80353797  .00002278  00000-0  20696-4 0  9996,2 55307  70.0017 310.0572 0003297 247.5015 112.5832 15.69941286  7460,6737.202,91.723,361.288,356.846,0.0
55307.0,STARLINK-5288,PAYLOAD,2023-03-03 01:24:05,15.69949258,0.0002794,70.0035,309.3427,242.7557,117.3354,6.6097e-05,7.75e-05,0.0,0 STARLINK-5288,1 55307U 23010AQ  23062.05840208  .00007750  00000-0  66097-4 0  9997,2 55307  70.0035 309.3427 0002794 242.7557 117.3354 15.69949258  7187,6737.179,91.723,360.927,357.162,0.0
55307.0,STARLINK-5288,PAYLOAD,2023-03-03 22:48:37,15.6994286,0.0003185,70.0017,306.8322,255.6299,104.4544,0.00014687,0.00017497,0.0,0 STARLINK-5288,1 55307U 23010AQ  23062.95043485  .00017497  00000-0  14687-3 0  9994,2 55307  70.0017 306.8322 0003185 255.6299 104.4544 15.69942860  7320,6737.197,91.723,361.208,356.917,0.0
55307.0,STARLINK-5288,PAYLOAD,2023-03-04 01:52:08,15.69914228,0.0002941,70.0018,306.4754,243.9263,116.163,-6.3149e-06,-9.71e-06,0.0,0 STARLINK-5288,1 55307U 23010AQ  23063.07787362 -.00000971  00000-0 -63149-5 0  9997,2 55307  70.0018 306.4754 0002941 243.9263 116.1630 15.69914228  7341,6737.279,91.725,361.126,357.163,0.0
55307.0,STARLINK-5288,PAYLOAD,2023-03-04 17:09:39,15.69932153,0.0002947,70.001,304.6834,254.0827,106.0044,0.00011916,0.00014143,0.0,0 STARLINK-5288,1 55307U 23010AQ  23063.71503946  .00014143  00000-0  11916-3 0  9999,2 55307  70.0010 304.6834 0002947 254.0827 106.0044 15.69932153  7442,6737.228,91.724,361.079,357.108,0.0
55307.0,STARLINK-5288,PAYLOAD,2023-03-04 18:41:24,15.69928217,0.0003012,70.001,304.5037,260.1967,99.8889,0.00014966,0.00017823,0.0,0 STARLINK-5288,1 55307U 23010AQ  23063.77875714  .00017823  00000-0  14966-3 0  9996,2 55307  70.0010 304.5037 0003012 260.1967  99.8889 15.69928217  7771,6737.239,91.724,361.134,357.075,0.0
55307.0,STARLINK-5288,PAYLOAD,2023-03-05 22:12:56,15.69948145,0.0003872,69.9989,301.2782,273.6331,86.4422,0.00012557,0.00014929,0.0,0 STARLINK-5288,1 55307U 23010AQ  23064.92565303  .00014929  00000-0  12557-3 0  9992,2 55307  69.9989 301.2782 0003872 273.6331  86.4422 15.69948145  7634,6737.182,91.723,361.656,356.439,0.0
55307.0,STARLINK-5288,PAYLOAD,2023-03-06 01:16:26,15.69930825,0.0003476,69.9987,300.9196,273.1043,86.9755,1.818e-05,1.974e-05,0.0,0 STARLINK-5288,1 55307U 23010AQ  23065.05308964  .00001974  00000-0  18180-4 0  9990,2 55307  69.9987 300.9196 0003476 273.1043  86.9755 15.69930825  7654,6737.232,91.724,361.439,356.755,0.0
55307.0,STARLINK-5288,PAYLOAD,2023-03-06 19:37:29,15.69918788,0.0003605,70.0006,298.7706,280.2625,79.8164,3.2602e-05,3.708e-05,0.0,0 STARLINK-5288,1 55307U 23010AQ  23065.81769689  .00003708  00000-0  32602-4 0  9991,2 55307  70.0006 298.7706 0003605 280.2625  79.8164 15.69918788  7771,6737.266,91.724,361.56,356.703,0.0
55307.0,STARLINK-5288,PAYLOAD,2023-03-07 01:44:29,15.69941367,0.0003211,70.0004,298.0526,278.1935,81.8896,0.00026011,0.00031201,0.0,0 STARLINK-5288,1 55307U 23010AQ  23066.07256272  .00031201  00000-0  26011-3 0  9994,2 55307  70.0004 298.0526 0003211 278.1935  81.8896 15.69941367  7814,6737.202,91.723,361.23,356.903,0.0
55307.0,STARLINK-5288,PAYLOAD,2023-03-07 21:37:15,15.69944717,0.0002579,70.0009,295.7255,256.0436,104.0473,8.5972e-05,0.00010145,0.0,0 STARLINK-5288,1 55307U 23010AQ  23066.90087338  .00010145  00000-0  85972-4 0  9997,2 55307  70.0009 295.7255 0002579 256.0436 104.0473 15.69944717  7944,6737.192,91.723,360.795,357.32,0.0
55307.0,STARLINK-5288,PAYLOAD,2023-03-08 14:26:32,15.69920455,0.000353,69.9972,293.7537,263.0799,96.9995,5.6668e-05,6.605e-05,0.0,0 STARLINK-5288,1 55307U 23010AQ  23067.60176231  .00006605  00000-0  56668-4 0  9992,2 55307  69.9972 293.7537 0003530 263.0799  96.9995 15.69920455  8053,6737.262,91.724,361.505,356.748,0.0
55307.0,STARLINK-5288,PAYLOAD,2023-03-08 23:37:02,15.69955831,0.0003229,69.9942,292.6798,262.8441,97.2388,0.00019276,0.00023059,0.0,0 STARLINK-5288,1 55307U 23010AQ  23067.98405676  .00023059  00000-0  19276-3 0  9996,2 55307  69.9942 292.6798 0003229 262.8441  97.2388 15.69955831  8116,6737.16,91.722,361.201,356.85,0.0
55307.0,STARLINK-5288,PAYLOAD,2023-03-09 01:08:47,15.69921129,0.0003259,70.0008,292.5002,256.6596,103.4236,-2.1986e-05,-2.855e-05,0.0,0 STARLINK-5288,1 55307U 23010AQ  23068.04777532 -.00002855  00000-0 -21986-4 0  9992,2 55307  70.0008 292.5002 0003259 256.6596 103.4236 15.69921129  8120,6737.26,91.724,361.32,356.929,0.0
55307.0,STARLINK-5288,PAYLOAD,2023-03-09 17:58:03,15.69937192,0.0004423,69.9965,290.5295,252.4384,107.6329,1.5215e-05,1.618e-05,0.0,0 STARLINK-5288,1 55307U 23010AQ  23068.74865365  .00001618  00000-0  15215-4 0  9993,2 55307  69.9965 290.5295 0004423 252.4384 107.6329 15.69937192  8232,6737.214,91.723,362.059,356.099,0.0
55307.0,STARLINK-5288,PAYLOAD,2023-03-09 21:01:34,15.69939028,0.0004074,69.9967,290.171,271.4722,88.6007,9.0166e-05,0.0001065,0.0,0 STARLINK-5288,1 55307U 23010AQ  23068.87608955  .00010650  00000-0  90166-4 0  9991,2 55307  69.9967 290.1710 0004074 271.4722  88.6007 15.69939028  8579,6737.208,91.723,361.818,356.329,0.0
55307.0,STARLINK-5288,PAYLOAD,2023-03-10 00:05:04,15.69923264,0.0003031,69.9987,289.8144,274.6347,85.4503,8.1951e-05,9.652e-05,0.0,0 STARLINK-5288,1 55307U 23010AQ  23069.00352829  .00009652  00000-0  81951-4 0  9995,2 55307  69.9987 289.8144 0003031 274.6347  85.4503 15.69923264  8275,6737.254,91.724,361.161,357.076,0.0
55307.0,STARLINK-5288,PAYLOAD,2023-03-10 07:43:50,15.69914212,0.0002397,70.0005,288.9182,274.349,85.7432,6.5793e-05,7.702e-05,0.0,0 STARLINK-5288,1 55307U 23010AQ  23069.32211774  .00007702  00000-0  65793-4 0  9993,2 55307  70.0005 288.9182 0002397 274.3490  85.7432 15.69914212  8324,6737.279,91.725,360.759,357.53,0.0
55307.0,STARLINK-5288,PAYLOAD,2023-03-11 00:33:06,15.69938735,0.0003602,69.9991,286.9467,274.2465,85.8319,0.00019654,0.00023501,0.0,0 STARLINK-5288,1 55307U 23010AQ  23070.02299584  .00023501  00000-0  19654-3 0  9996,2 55307  69.9991 286.9467 0003602 274.2465  85.8319 15.69938735  8433,6737.209,91.723,361.501,356.648,0.0
